Satellite: AAUSAT2
Catalog number: 32788
Epoch time:      11208.66680521
Element set:    0042
Inclination:      097.8456 deg
RA of node:       271.9632 deg
Eccentricity:    0.0016043
Arg of perigee:   048.7169 deg
Mean anomaly:     311.5456 deg
Mean motion:   14.82699543 rev/day
Decay rate:       2.77e-06 rev/day^2
Epoch rev:           17557
Checksum:              326

Satellite: DO-64
Catalog number: 32789
Epoch time:      11208.73031391
Element set:    0058
Inclination:      097.8553 deg
RA of node:       273.1088 deg
Eccentricity:    0.0016217
Arg of perigee:   045.7981 deg
Mean anomaly:     314.4560 deg
Mean motion:   14.83216409 rev/day
Decay rate:       7.53e-06 rev/day^2
Epoch rev:           17559
Checksum:              321

Satellite: CO-66
Catalog number: 32791
Epoch time:      11208.73359020
Element set:    0045
Inclination:      097.8447 deg
RA of node:       271.7187 deg
Eccentricity:    0.0017000
Arg of perigee:   046.3449 deg
Mean anomaly:     313.9166 deg
Mean motion:   14.82187617 rev/day
Decay rate:       4.23e-06 rev/day^2
Epoch rev:           17551
Checksum:              306

Satellite: RS-30
Catalog number: 32953
Epoch time:      11209.76018471
Element set:     943
Inclination:      082.5040 deg
RA of node:       136.8834 deg
Eccentricity:    0.0018066
Arg of perigee:   300.4007 deg
Mean anomaly:     059.5289 deg
Mean motion:   12.43014387 rev/day
Decay rate:        1.0e-07 rev/day^2
Epoch rev:           14425
Checksum:              274

Satellite: TACSAT-3
Catalog number: 35001
Epoch time:      11208.65803414
Element set:     653
Inclination:      040.4538 deg
RA of node:       286.7596 deg
Eccentricity:    0.0020380
Arg of perigee:   153.9799 deg
Mean anomaly:     206.2047 deg
Mean motion:   15.50143125 rev/day
Decay rate:     1.2048e-04 rev/day^2
Epoch rev:           12336
Checksum:              278

Satellite: PHARMSAT
Catalog number: 35002
Epoch time:      11209.60531062
Element set:     609
Inclination:      040.4702 deg
RA of node:       279.0066 deg
Eccentricity:    0.0022210
Arg of perigee:   169.0008 deg
Mean anomaly:     191.1300 deg
Mean motion:   15.49547655 rev/day
Decay rate:      8.886e-05 rev/day^2
Epoch rev:           12353
Checksum:              257

Satellite: HAWKSAT1
Catalog number: 35003
Epoch time:      11209.41493037
Element set:     700
Inclination:      040.4522 deg
RA of node:       243.8447 deg
Eccentricity:    0.0016395
Arg of perigee:   185.8379 deg
Mean anomaly:     174.2241 deg
Mean motion:   15.71188686 rev/day
Decay rate:     6.3139e-04 rev/day^2
Epoch rev:           12390
Checksum:              293

Satellite: CP6
Catalog number: 35004
Epoch time:      11209.45257431
Element set:     705
Inclination:      040.4505 deg
RA of node:       231.2913 deg
Eccentricity:    0.0014903
Arg of perigee:   181.7561 deg
Mean anomaly:     178.3218 deg
Mean motion:   15.82936479 rev/day
Decay rate:    1.45612e-03 rev/day^2
Epoch rev:           12403
Checksum:              278

Satellite: METEOR-M
Catalog number: 35865
Epoch time:      11209.74072731
Element set:     588
Inclination:      098.7030 deg
RA of node:       264.3249 deg
Eccentricity:    0.0001811
Arg of perigee:   290.2074 deg
Mean anomaly:     069.8878 deg
Mean motion:   14.21840660 rev/day
Decay rate:       1.76e-06 rev/day^2
Epoch rev:            9649
Checksum:              314

