AAUSAT2
1 32788U 08021F   11208.66680521  .00000277  00000-0  40769-4 0 00420
2 32788 097.8456 271.9632 0016043 048.7169 311.5456 14.82699543175579
DO-64
1 32789U 08021G   11208.73031391  .00000753  00000-0  98447-4 0 00586
2 32789 097.8553 273.1088 0016217 045.7981 314.4560 14.83216409175596
CO-66
1 32791U 08021J   11208.73359020  .00000423  00000-0  59567-4 0 00451
2 32791 097.8447 271.7187 0017000 046.3449 313.9166 14.82187617175517
RS-30
1 32953U 08025A   11209.76018471  .00000010  00000-0  00000 0 0  9433
2 32953 082.5040 136.8834 0018066 300.4007 059.5289 12.43014387144258
TACSAT-3
1 35001U 09028A   11208.65803414  .00012048  00000-0  21080-3 0  6537
2 35001 040.4538 286.7596 0020380 153.9799 206.2047 15.50143125123367
PHARMSAT
1 35002U 09028B   11209.60531062  .00008886  00000-0  15987-3 0  6096
2 35002 040.4702 279.0066 0022210 169.0008 191.1300 15.49547655123530
HAWKSAT1
1 35003U 09028C   11209.41493037  .00063139  00000-0  47912-3 0  7002
2 35003 040.4522 243.8447 0016395 185.8379 174.2241 15.71188686123904
CP6
1 35004U 09028D   11209.45257431  .00145612  00000-0  64638-3 0  7059
2 35004 040.4505 231.2913 0014903 181.7561 178.3218 15.82936479124033
METEOR-M
1 35865U 09049A   11209.74072731  .00000176  00000-0  10000-3 0  5885
2 35865 098.7030 264.3249 0001811 290.2074 069.8878 14.21840660 96497
